NORAD_CAT_ID,OBJECT_NAME,OBJECT_TYPE,EPOCH,MEAN_MOTION,ECCENTRICITY,INCLINATION,RA_OF_ASC_NODE,ARG_OF_PERICENTER,MEAN_ANOMALY,BSTAR,MEAN_MOTION_DOT,MEAN_MOTION_DDOT,TLE_LINE0,TLE_LINE1,TLE_LINE2,SEMIMAJOR_AXIS,PERIOD,APOGEE,PERIGEE,DECAYED
54175.0,STARLINK-5256,PAYLOAD,2023-01-11 11:47:13,15.08826155,0.0001312,53.2151,141.0367,80.2137,279.9003,-0.00012794,-2.323e-05,0.0,0 STARLINK-5256,1 54175U 22141U   23011.49112991 -.00002323  00000-0 -12794-3 0  9993,2 54175  53.2151 141.0367 0001312  80.2137 279.9003 15.08826155 11767,6917.923000000002,95.438,540.695,538.88,0.0
54175.0,STARLINK-5256,PAYLOAD,2023-01-11 14:58:00,15.0882458,0.0001176,53.2155,140.4428,74.8056,285.3066,-0.0001299,-2.354e-05,0.0,0 STARLINK-5256,1 54175U 22141U   23011.62361197 -.00002354  00000-0 -12990-3 0  9994,2 54175  53.2155 140.4428 0001176  74.8056 285.3066 15.08824580 11781,6917.928000000001,95.439,540.606,538.979,0.0
54175.0,STARLINK-5256,PAYLOAD,2023-01-11 18:08:46,15.08829139,0.0001583,53.2139,139.8488,75.19,284.9268,-0.00015158,-2.699e-05,0.0,0 STARLINK-5256,1 54175U 22141U   23011.75609264 -.00002699  00000-0 -15158-3 0  9999,2 54175  53.2139 139.8488 0001583  75.1900 284.9268 15.08829139 11802,6917.914000000002,95.438,540.874,538.683,0.0
54175.0,STARLINK-5256,PAYLOAD,2023-01-12 17:59:33,15.08841499,0.0001349,53.2142,135.3867,80.3909,279.7235,0.00036979,5.602e-05,0.0,0 STARLINK-5256,1 54175U 22141U   23012.74969493  .00005602  00000-0  36979-3 0  9991,2 54175  53.2142 135.3867 0001349  80.3909 279.7235 15.08841499 11950,6917.876,95.437,540.674,538.808,0.0
54175.0,STARLINK-5256,PAYLOAD,2023-01-13 11:28:48,15.08835837,0.0001142,53.2137,132.1163,71.54,288.5716,0.00030824,4.621e-05,0.0,0 STARLINK-5256,1 54175U 22141U   23013.47834351  .00004621  00000-0  30824-3 0  9999,2 54175  53.2137 132.1163 0001142  71.5400 288.5716 15.08835837 12061,6917.893,95.438,540.548,538.9680000000001,0.0
54175.0,STARLINK-5256,PAYLOAD,2023-01-13 14:39:34,15.08845439,0.000124,53.2143,131.5218,84.7026,275.4107,0.00047687,7.311e-05,0.0,0 STARLINK-5256,1 54175U 22141U   23013.61082063  .00007311  00000-0  47687-3 0  9994,2 54175  53.2143 131.5218 0001240  84.7026 275.4107 15.08845439 12081,6917.8640000000005,95.437,540.587,538.871,0.0
54175.0,STARLINK-5256,PAYLOAD,2023-01-13 17:50:20,15.08853162,0.0001233,53.2142,130.9266,85.4155,274.6978,0.00063939,9.906e-05,0.0,0 STARLINK-5256,1 54175U 22141U   23013.74329859  .00009906  00000-0  63939-3 0  9995,2 54175  53.2142 130.9266 0001233  85.4155 274.6978 15.08853162 12101,6917.84,95.437,540.558,538.852,0.0
54175.0,STARLINK-5256,PAYLOAD,2023-01-14 00:11:53,15.08846357,0.0001060999999999,53.2137,129.7377,83.0919,277.0193,0.00056592,8.732e-05,0.0,0 STARLINK-5256,1 54175U 22141U   23014.00826034  .00008732  00000-0  56592-3 0  9995,2 54175  53.2137 129.7377 0001061  83.0919 277.0193 15.08846357 12143,6917.861,95.437,540.46,538.992,0.0
54175.0,STARLINK-5256,PAYLOAD,2023-01-15 06:24:13,15.08849164,0.0001748,53.2154,124.0894,103.2479,256.8708,0.00053039,8.165e-05,0.0,0 STARLINK-5256,1 54175U 22141U   23015.26682000  .00008165  00000-0  53039-3 0  9990,2 54175  53.2154 124.0894 0001748 103.2479 256.8708 15.08849164 12339,6917.852,95.437,540.927,538.508,0.0
54175.0,STARLINK-5256,PAYLOAD,2023-01-15 12:45:45,15.08841752,9.6e-05,53.2142,122.8982,91.345,268.7652,0.00035565,5.377e-05,0.0,0 STARLINK-5256,1 54175U 22141U   23015.53178106  .00005377  00000-0  35565-3 0  9993,2 54175  53.2142 122.8982 0000960  91.3450 268.7652 15.08841752 12370,6917.875,95.437,540.404,539.076,0.0
54175.0,STARLINK-5256,PAYLOAD,2023-01-15 14:21:08,15.08849788,8.499999999999999e-05,53.2144,122.601,89.6802,270.4287,0.00076102,0.00011848,0.0,0 STARLINK-5256,1 54175U 22141U   23015.59801985  .00011848  00000-0  76102-3 0  9999,2 54175  53.2144 122.6010 0000850  89.6802 270.4287 15.08849788 12383,6917.85,95.437,540.303,539.127,0.0
54175.0,STARLINK-5256,PAYLOAD,2023-01-16 11:01:10,15.08857357,0.0001478,53.2151,118.7366,42.7592,317.3515,0.0012093,0.0001902,0.0,0 STARLINK-5256,1 54175U 22141U   23016.45914377  .00019020  00000-0  12093-2 0  9993,2 54175  53.2151 118.7366 0001478  42.7592 317.3515 15.08857357 12515,6917.826999999999,95.436,540.715,538.67,0.0
54175.0,STARLINK-5256,PAYLOAD,2023-01-16 12:36:33,15.0885461,0.0001259,53.215,118.4408,55.2216,304.8895,0.00083295,0.00012999,0.0,0 STARLINK-5256,1 54175U 22141U   23016.52538236  .00012999  00000-0  83295-3 0  9998,2 54175  53.2150 118.4408 0001259  55.2216 304.8895 15.08854610 12529,6917.835999999999,95.437,540.572,538.83,0.0
54175.0,STARLINK-5256,PAYLOAD,2023-01-16 14:11:56,15.08860356,0.0001434,53.2159,118.1403,53.6992,306.4132,0.0010015,0.00015696,0.0,0 STARLINK-5256,1 54175U 22141U   23016.59162135  .00015696  00000-0  10015-2 0  9992,2 54175  53.2159 118.1403 0001434  53.6992 306.4132 15.08860356 12535,6917.818,95.436,540.675,538.691,0.0
54175.0,STARLINK-5256,PAYLOAD,2023-01-16 23:44:14,15.08842122,0.0001039,53.2153,116.3581,118.8647,241.2449,0.00013983,1.938e-05,0.0,0 STARLINK-5256,1 54175U 22141U   23016.98906198  .00001938  00000-0  13983-3 0  9992,2 54175  53.2153 116.3581 0001039 118.8647 241.2449 15.08842122 12592,6917.874,95.437,540.4580000000001,539.02,0.0
54175.0,STARLINK-5256,PAYLOAD,2023-01-17 12:27:21,15.08816333,0.000131,53.2149,113.9792,107.1687,252.9449,-0.00021058,-3.635e-05,0.0,0 STARLINK-5256,1 54175U 22141U   23017.51899368 -.00003635  00000-0 -21058-3 0  9992,2 54175  53.2149 113.9792 0001310 107.1687 252.9449 15.08816333 12674,6917.953,95.439,540.724,538.911,0.0
54175.0,STARLINK-5256,PAYLOAD,2023-01-18 12:18:07,15.08856118,7.070000000000001e-05,53.2151,109.5175,128.0799,232.0257,0.0010186,0.00015967,0.0,0 STARLINK-5256,1 54175U 22141U   23018.51259230  .00015967  00000-0  10186-2 0  9999,2 54175  53.2151 109.5175 0000707 128.0799 232.0257 15.08856118 12826,6917.831,95.437,540.185,539.207,0.0
54175.0,STARLINK-5256,PAYLOAD,2023-01-18 13:53:30,15.08861943,0.0001503,53.2143,109.2172,123.3764,236.7372,0.0011173,0.00017549,0.0,0 STARLINK-5256,1 54175U 22141U   23018.57883023  .00017549  00000-0  11173-2 0  9993,2 54175  53.2143 109.2172 0001503 123.3764 236.7372 15.08861943 12838,6917.813,95.436,540.7180000000001,538.639,0.0
54175.0,STARLINK-5256,PAYLOAD,2023-01-18 23:25:49,15.08861962,0.000121,53.2159,107.4352,93.2948,266.8182,0.00050631,7.784e-05,0.0,0 STARLINK-5256,1 54175U 22141U   23018.97626998  .00007784  00000-0  50631-3 0  9996,2 54175  53.2159 107.4352 0001210  93.2948 266.8182 15.08861962 12899,6917.813,95.436,540.515,538.841,0.0
54175.0,STARLINK-5256,PAYLOAD,2023-01-19 12:08:54,15.08861074,0.0001874,53.2132,105.0566,93.832,266.2886,9.4419e-05,1.216e-05,0.0,0 STARLINK-5256,1 54175U 22141U   23019.50618645  .00001216  00000-0  94419-4 0  9993,2 54175  53.2132 105.0566 0001874  93.8320 266.2886 15.08861074 12975,6917.816,95.436,540.977,538.385,0.0
54175.0,STARLINK-5256,PAYLOAD,2023-01-20 11:59:41,15.08848206,7.77e-05,53.216,100.596,80.1429,279.9651,0.00025087,3.708e-05,0.0,0 STARLINK-5256,1 54175U 22141U   23020.49978922  .00003708  00000-0  25087-3 0  9992,2 54175  53.2160 100.5960 0000777  80.1429 279.9651 15.08848206 13125,6917.855,95.437,540.258,539.183,0.0
54175.0,STARLINK-5256,PAYLOAD,2023-01-21 11:50:28,15.08852791,9.75e-05,53.2156,96.1362,63.4881,296.6211,0.00050098,7.697e-05,0.0,0 STARLINK-5256,1 54175U 22141U   23021.49338912  .00007697  00000-0  50098-3 0  9993,2 54175  53.2156  96.1362 0000975  63.4881 296.6211 15.08852791 13270,6917.840999999999,95.437,540.381,539.0319999999999,0.0
54175.0,STARLINK-5256,PAYLOAD,2023-01-22 11:41:15,15.08852494,0.0001161,53.2163,91.6776,67.1272,292.9843,0.00030417,4.558e-05,0.0,0 STARLINK-5256,1 54175U 22141U   23022.48698721  .00004558  00000-0  30417-3 0  9996,2 54175  53.2163  91.6776 0001161  67.1272 292.9843 15.08852494 13427,6917.842,95.437,540.51,538.904,0.0
54175.0,STARLINK-5256,PAYLOAD,2023-01-23 03:35:07,15.08834665,0.0001382,53.2146,88.7028,86.8083,273.3068,-0.00015586,-2.767e-05,0.0,0 STARLINK-5256,1 54175U 22141U   23023.14939165 -.00002767  00000-0 -15586-3 0  9992,2 54175  53.2146  88.7028 0001382  86.8083 273.3068 15.08834665 13521,6917.897,95.438,540.7180000000001,538.806,0.0
54175.0,STARLINK-5256,PAYLOAD,2023-01-24 11:22:50,15.08844437,0.0001165,53.2153,82.7541,91.2533,268.8593,0.00022159,3.241e-05,0.0,0 STARLINK-5256,1 54175U 22141U   23024.47419476  .00003241  00000-0  22159-3 0  9997,2 54175  53.2153  82.7541 0001165  91.2533 268.8593 15.08844437 13724,6917.866999999999,95.437,540.538,538.9259999999999,0.0
54175.0,STARLINK-5256,PAYLOAD,2023-01-25 03:16:42,15.08835033,0.000126,53.216,79.782,94.0862,266.0274,0.00017723,2.533e-05,0.0,0 STARLINK-5256,1 54175U 22141U   23025.13660291  .00002533  00000-0  17723-3 0  9998,2 54175  53.2160  79.7820 0001260  94.0862 266.0274 15.08835033 13829,6917.896,95.438,540.632,538.889,0.0
54175.0,STARLINK-5256,PAYLOAD,2023-01-25 12:49:01,15.08843441,0.0001183,53.2154,77.9957,104.1914,255.921,0.00028493,4.25e-05,0.0,0 STARLINK-5256,1 54175U 22141U   23025.53404007  .00004250  00000-0  28493-3 0  9997,2 54175  53.2154  77.9957 0001183 104.1914 255.9210 15.08843441 13883,6917.87,95.437,540.553,538.9159999999999,0.0
54175.0,STARLINK-5256,PAYLOAD,2023-01-26 09:29:01,15.08846763,0.0001167,53.2156,74.1299,95.1154,264.9971,0.0002853999999999,4.258e-05,0.0,0 STARLINK-5256,1 54175U 22141U   23026.39516028  .00004258  00000-0  28540-3 0  9990,2 54175  53.2156  74.1299 0001167  95.1154 264.9971 15.08846763 14010,6917.86,95.437,540.5319999999999,538.9169999999999,0.0
54175.0,STARLINK-5256,PAYLOAD,2023-01-26 12:39:48,15.08851539,0.0001204,53.2151,73.5344,95.2122,264.9008,0.00035014,5.291e-05,0.0,0 STARLINK-5256,1 54175U 22141U   23026.52763919  .00005291  00000-0  35014-3 0  9990,2 54175  53.2151  73.5344 0001204  95.2122 264.9008 15.08851539 14037,6917.845,95.437,540.543,538.877,0.0
